{
"type": "FeatureCollection",
"name": "изохроны3",
"crs": { "type": "name", "properties": { "name": "urn:ogc:def:crs:OGC:1.3:CRS84" } },
"features": [
{ "type": "Feature", "properties": { "ID": null, "CENTER_LON": "37.7733968", "CENTER_LAT": "55.7521896", "AA_METERS": 2500, "AA_MODE": "driving-car", "TOTAL_POP": "143513" }, "geometry": { "type": "Polygon", "coordinates": [ [ [ 37.743518, 55.747993 ], [ 37.743916, 55.7478 ], [ 37.744275, 55.747632 ], [ 37.744538, 55.747538 ], [ 37.744785, 55.747451 ], [ 37.744973, 55.747397 ], [ 37.745152, 55.747346 ], [ 37.74537, 55.747306 ], [ 37.750635, 55.74488 ], [ 37.752377, 55.743473 ], [ 37.752516, 55.743381 ], [ 37.75437, 55.742377 ], [ 37.756223, 55.741373 ], [ 37.760779, 55.738899 ], [ 37.76208, 55.738206 ], [ 37.763409, 55.737501 ], [ 37.767787, 55.736001 ], [ 37.768143, 55.735946 ], [ 37.768662, 55.736138 ], [ 37.774219, 55.737978 ], [ 37.778292, 55.737719 ], [ 37.78267, 55.73761 ], [ 37.782887, 55.73763 ], [ 37.783104, 55.737651 ], [ 37.786349, 55.740931 ], [ 37.789683, 55.740971 ], [ 37.791204, 55.740507 ], [ 37.791939, 55.740181 ], [ 37.792617, 55.74015 ], [ 37.792791, 55.740146 ], [ 37.794401, 55.740118 ], [ 37.797035, 55.740701 ], [ 37.800469, 55.742819 ], [ 37.803972, 55.744408 ], [ 37.803994, 55.744768 ], [ 37.802416, 55.747183 ], [ 37.805144, 55.75071 ], [ 37.808037, 55.752746 ], [ 37.809484, 55.755514 ], [ 37.809532, 55.755871 ], [ 37.806745, 55.75838 ], [ 37.803891, 55.761124 ], [ 37.800094, 55.762784 ], [ 37.799762, 55.762923 ], [ 37.794164, 55.762261 ], [ 37.791544, 55.764154 ], [ 37.790526, 55.764949 ], [ 37.78953, 55.765826 ], [ 37.788975, 55.765707 ], [ 37.788419, 55.765587 ], [ 37.788093, 55.76551 ], [ 37.787771, 55.765434 ], [ 37.786993, 55.765253 ], [ 37.786214, 55.765072 ], [ 37.785319, 55.764903 ], [ 37.784417, 55.764733 ], [ 37.781858, 55.764238 ], [ 37.781085, 55.764087 ], [ 37.780313, 55.763936 ], [ 37.777301, 55.763309 ], [ 37.776689, 55.76323 ], [ 37.775736, 55.763039 ], [ 37.772713, 55.763199 ], [ 37.76847, 55.766219 ], [ 37.767965, 55.768036 ], [ 37.767459, 55.769854 ], [ 37.767078, 55.771225 ], [ 37.766696, 55.772597 ], [ 37.766349, 55.772501 ], [ 37.766731, 55.771129 ], [ 37.767112, 55.769757 ], [ 37.767618, 55.76794 ], [ 37.765014, 55.762673 ], [ 37.764409, 55.762443 ], [ 37.762694, 55.762085 ], [ 37.761334, 55.761865 ], [ 37.759384, 55.7615 ], [ 37.757435, 55.761136 ], [ 37.751825, 55.763181 ], [ 37.751661, 55.763342 ], [ 37.751497, 55.763504 ], [ 37.751244, 55.763247 ], [ 37.747966, 55.759451 ], [ 37.746021, 55.757482 ], [ 37.746089, 55.757129 ], [ 37.746353, 55.752504 ], [ 37.742431, 55.749339 ], [ 37.742221, 55.749046 ], [ 37.743518, 55.747993 ] ] ] } },
{ "type": "Feature", "properties": { "ID": null, "CENTER_LON": "37.7733968", "CENTER_LAT": "55.7521896", "AA_METERS": 2000, "AA_MODE": "driving-car", "TOTAL_POP": "95654" }, "geometry": { "type": "Polygon", "coordinates": [ [ [ 37.749183, 55.747644 ], [ 37.752506, 55.74444 ], [ 37.756655, 55.742555 ], [ 37.760014, 55.741135 ], [ 37.761094, 55.740689 ], [ 37.761454, 55.740694 ], [ 37.762559, 55.740719 ], [ 37.768078, 55.739357 ], [ 37.769268, 55.73886 ], [ 37.769558, 55.738814 ], [ 37.771195, 55.738567 ], [ 37.771272, 55.738854 ], [ 37.771735, 55.739889 ], [ 37.772016, 55.741382 ], [ 37.776661, 55.743221 ], [ 37.778647, 55.740382 ], [ 37.778973, 55.740074 ], [ 37.779296, 55.739915 ], [ 37.780913, 55.741449 ], [ 37.786591, 55.741947 ], [ 37.786704, 55.741922 ], [ 37.789683, 55.740971 ], [ 37.792889, 55.743158 ], [ 37.796028, 55.744886 ], [ 37.796051, 55.745246 ], [ 37.795911, 55.748518 ], [ 37.798801, 55.752194 ], [ 37.799109, 55.752379 ], [ 37.800347, 55.753625 ], [ 37.801726, 55.756594 ], [ 37.801776, 55.756951 ], [ 37.799673, 55.758781 ], [ 37.797786, 55.759683 ], [ 37.794293, 55.760828 ], [ 37.789586, 55.762219 ], [ 37.786038, 55.763062 ], [ 37.781858, 55.764238 ], [ 37.781085, 55.764087 ], [ 37.780313, 55.763936 ], [ 37.777301, 55.763309 ], [ 37.776689, 55.76323 ], [ 37.775736, 55.763039 ], [ 37.772713, 55.763199 ], [ 37.768477, 55.766192 ], [ 37.768129, 55.766101 ], [ 37.764409, 55.762443 ], [ 37.759188, 55.759743 ], [ 37.75612, 55.759223 ], [ 37.754115, 55.759105 ], [ 37.754077, 55.759028 ], [ 37.754047, 55.758752 ], [ 37.754145, 55.758674 ], [ 37.756664, 55.756218 ], [ 37.754815, 55.751625 ], [ 37.754508, 55.751437 ], [ 37.753531, 55.750384 ], [ 37.749545, 55.748602 ], [ 37.749147, 55.748003 ], [ 37.749183, 55.747644 ] ] ] } },
{ "type": "Feature", "properties": { "ID": null, "CENTER_LON": "37.7733968", "CENTER_LAT": "55.7521896", "AA_METERS": 1500, "AA_MODE": "driving-car", "TOTAL_POP": "49847" }, "geometry": { "type": "Polygon", "coordinates": [ [ [ 37.757707, 55.75547 ], [ 37.760249, 55.752488 ], [ 37.757602, 55.74766 ], [ 37.757477, 55.74752 ], [ 37.757419, 55.747283 ], [ 37.759756, 55.745716 ], [ 37.760393, 55.745383 ], [ 37.764685, 55.743635 ], [ 37.766781, 55.743027 ], [ 37.772646, 55.742847 ], [ 37.777873, 55.743668 ], [ 37.781151, 55.742937 ], [ 37.784281, 55.743731 ], [ 37.785464, 55.744106 ], [ 37.788088, 55.745388 ], [ 37.791005, 55.750256 ], [ 37.792739, 55.752218 ], [ 37.794049, 55.756873 ], [ 37.793986, 55.757227 ], [ 37.78842, 55.758876 ], [ 37.783196, 55.760314 ], [ 37.780998, 55.760967 ], [ 37.779034, 55.761444 ], [ 37.774417, 55.76278 ], [ 37.772113, 55.763264 ], [ 37.771529, 55.763317 ], [ 37.771303, 55.76329 ], [ 37.770589, 55.76219 ], [ 37.770657, 55.761837 ], [ 37.771176, 55.757549 ], [ 37.767441, 55.755614 ], [ 37.763936, 55.754928 ], [ 37.761393, 55.755366 ], [ 37.758436, 55.756319 ], [ 37.757607, 55.755961 ], [ 37.757413, 55.755658 ], [ 37.757707, 55.75547 ] ] ] } },
{ "type": "Feature", "properties": { "ID": null, "CENTER_LON": "37.7733968", "CENTER_LAT": "55.7521896", "AA_METERS": 1000, "AA_MODE": "driving-car", "TOTAL_POP": "28811" }, "geometry": { "type": "Polygon", "coordinates": [ [ [ 37.761859, 55.750851 ], [ 37.764497, 55.747197 ], [ 37.765938, 55.745774 ], [ 37.766637, 55.745628 ], [ 37.771979, 55.744753 ], [ 37.772658, 55.744708 ], [ 37.775537, 55.746032 ], [ 37.779904, 55.745653 ], [ 37.781672, 55.745177 ], [ 37.781907, 55.745226 ], [ 37.785494, 55.749154 ], [ 37.786473, 55.751622 ], [ 37.787748, 55.756242 ], [ 37.787631, 55.756451 ], [ 37.786105, 55.757409 ], [ 37.782492, 55.758105 ], [ 37.780227, 55.759007 ], [ 37.779414, 55.759227 ], [ 37.775884, 55.759923 ], [ 37.773726, 55.759901 ], [ 37.773149, 55.759782 ], [ 37.772803, 55.758061 ], [ 37.767441, 55.755614 ], [ 37.763936, 55.754928 ], [ 37.761164, 55.754384 ], [ 37.761859, 55.750851 ] ] ] } }
]
}
