{
"type": "FeatureCollection",
"name": "изохнроны",
"crs": { "type": "name", "properties": { "name": "urn:ogc:def:crs:OGC:1.3:CRS84" } },
"features": [
{ "type": "Feature", "properties": { "ID": null, "CENTER_LON": "37.38899675615165", "CENTER_LAT": "55.788687006179565", "AA_METERS": 2500, "AA_MODE": "foot-walking", "TOTAL_POP": "108729" }, "geometry": { "type": "Polygon", "coordinates": [ [ [ 37.355366, 55.791627 ], [ 37.356284, 55.790721 ], [ 37.356303, 55.790717 ], [ 37.356616, 55.790625 ], [ 37.359509, 55.785537 ], [ 37.359234, 55.784296 ], [ 37.359385, 55.782148 ], [ 37.359588, 55.78185 ], [ 37.361214, 55.781094 ], [ 37.364886, 55.778849 ], [ 37.370054, 55.776656 ], [ 37.371775, 55.775024 ], [ 37.375589, 55.774039 ], [ 37.37772, 55.773011 ], [ 37.378079, 55.772981 ], [ 37.380099, 55.774456 ], [ 37.384449, 55.773789 ], [ 37.387566, 55.774382 ], [ 37.388549, 55.77483 ], [ 37.389532, 55.775279 ], [ 37.390078, 55.775774 ], [ 37.390576, 55.776237 ], [ 37.393299, 55.778818 ], [ 37.394217, 55.779469 ], [ 37.39477, 55.780109 ], [ 37.395344, 55.780746 ], [ 37.395369, 55.78078 ], [ 37.396448, 55.781954 ], [ 37.402134, 55.782 ], [ 37.40313, 55.783224 ], [ 37.403895, 55.784269 ], [ 37.405823, 55.787498 ], [ 37.408424, 55.791167 ], [ 37.412671, 55.793347 ], [ 37.414091, 55.79328 ], [ 37.416379, 55.792907 ], [ 37.421514, 55.793204 ], [ 37.421729, 55.793368 ], [ 37.421731, 55.793385 ], [ 37.421638, 55.793542 ], [ 37.421286, 55.794041 ], [ 37.419003, 55.795743 ], [ 37.416186, 55.799806 ], [ 37.415976, 55.800099 ], [ 37.415768, 55.800196 ], [ 37.413223, 55.801246 ], [ 37.407825, 55.80328 ], [ 37.407813, 55.803283 ], [ 37.405531, 55.803852 ], [ 37.405312, 55.803899 ], [ 37.405312, 55.803899 ], [ 37.405094, 55.803946 ], [ 37.401211, 55.80416 ], [ 37.397738, 55.805437 ], [ 37.395897, 55.807749 ], [ 37.39583, 55.807764 ], [ 37.39386, 55.807433 ], [ 37.390817, 55.806591 ], [ 37.389942, 55.806219 ], [ 37.384796, 55.803534 ], [ 37.38242, 55.801802 ], [ 37.382208, 55.798865 ], [ 37.380722, 55.795783 ], [ 37.376969, 55.794284 ], [ 37.37648, 55.793926 ], [ 37.37115, 55.791289 ], [ 37.367286, 55.791049 ], [ 37.3632, 55.791716 ], [ 37.360023, 55.794262 ], [ 37.359328, 55.79427 ], [ 37.356087, 55.794324 ], [ 37.35462, 55.794067 ], [ 37.354475, 55.793737 ], [ 37.355366, 55.791627 ] ] ] } },
{ "type": "Feature", "properties": { "ID": null, "CENTER_LON": "37.38899675615165", "CENTER_LAT": "55.788687006179565", "AA_METERS": 2000, "AA_MODE": "foot-walking", "TOTAL_POP": "84337" }, "geometry": { "type": "Polygon", "coordinates": [ [ [ 37.361866, 55.791479 ], [ 37.362223, 55.791439 ], [ 37.362686, 55.7914 ], [ 37.363144, 55.791361 ], [ 37.364573, 55.791057 ], [ 37.366087, 55.786103 ], [ 37.365667, 55.783916 ], [ 37.365665, 55.783556 ], [ 37.370188, 55.78069 ], [ 37.370547, 55.780674 ], [ 37.374303, 55.781809 ], [ 37.376301, 55.778957 ], [ 37.376294, 55.778597 ], [ 37.378086, 55.777597 ], [ 37.378445, 55.77757 ], [ 37.381198, 55.777587 ], [ 37.381556, 55.77763 ], [ 37.384754, 55.778959 ], [ 37.388445, 55.779639 ], [ 37.391483, 55.777742 ], [ 37.391743, 55.777494 ], [ 37.393299, 55.778818 ], [ 37.394217, 55.779469 ], [ 37.39477, 55.780109 ], [ 37.395344, 55.780746 ], [ 37.395369, 55.78078 ], [ 37.396448, 55.781954 ], [ 37.402134, 55.782 ], [ 37.40313, 55.783224 ], [ 37.403895, 55.784269 ], [ 37.405823, 55.787498 ], [ 37.408424, 55.791167 ], [ 37.412671, 55.793347 ], [ 37.414091, 55.79328 ], [ 37.414176, 55.793279 ], [ 37.414178, 55.793639 ], [ 37.413776, 55.794757 ], [ 37.411518, 55.796595 ], [ 37.409783, 55.797499 ], [ 37.404366, 55.799834 ], [ 37.40126, 55.801796 ], [ 37.397578, 55.803362 ], [ 37.397166, 55.803484 ], [ 37.392839, 55.803541 ], [ 37.389077, 55.8027 ], [ 37.388998, 55.802348 ], [ 37.388669, 55.800722 ], [ 37.383778, 55.797934 ], [ 37.383606, 55.797955 ], [ 37.382857, 55.797932 ], [ 37.382734, 55.797899 ], [ 37.382644, 55.797839 ], [ 37.382167, 55.797329 ], [ 37.377285, 55.793859 ], [ 37.374291, 55.792193 ], [ 37.373928, 55.79186 ], [ 37.368436, 55.790623 ], [ 37.366863, 55.790927 ], [ 37.3632, 55.791716 ], [ 37.362634, 55.791848 ], [ 37.362069, 55.79198 ], [ 37.36155, 55.791877 ], [ 37.36151, 55.79152 ], [ 37.361866, 55.791479 ] ] ] } },
{ "type": "Feature", "properties": { "ID": null, "CENTER_LON": "37.38899675615165", "CENTER_LAT": "55.788687006179565", "AA_METERS": 1500, "AA_MODE": "foot-walking", "TOTAL_POP": "63307" }, "geometry": { "type": "Polygon", "coordinates": [ [ [ 37.369483, 55.790053 ], [ 37.372429, 55.7849 ], [ 37.376209, 55.783318 ], [ 37.37838, 55.782089 ], [ 37.378739, 55.782064 ], [ 37.381763, 55.782011 ], [ 37.384687, 55.783384 ], [ 37.389968, 55.782817 ], [ 37.392623, 55.780913 ], [ 37.392906, 55.780692 ], [ 37.396448, 55.781954 ], [ 37.396816, 55.782464 ], [ 37.398563, 55.783905 ], [ 37.402834, 55.783429 ], [ 37.40313, 55.783224 ], [ 37.403325, 55.783504 ], [ 37.403628, 55.783994 ], [ 37.405892, 55.78829 ], [ 37.408424, 55.791167 ], [ 37.408701, 55.791529 ], [ 37.408079, 55.793084 ], [ 37.40615, 55.794168 ], [ 37.401739, 55.795779 ], [ 37.398062, 55.798258 ], [ 37.397176, 55.798998 ], [ 37.39586, 55.799708 ], [ 37.395646, 55.799731 ], [ 37.390739, 55.800304 ], [ 37.390143, 55.80021 ], [ 37.387492, 55.798611 ], [ 37.383606, 55.797955 ], [ 37.382857, 55.797932 ], [ 37.382734, 55.797899 ], [ 37.382644, 55.797839 ], [ 37.382167, 55.797329 ], [ 37.377285, 55.793859 ], [ 37.375994, 55.792467 ], [ 37.371186, 55.789997 ], [ 37.370024, 55.790315 ], [ 37.369788, 55.790361 ], [ 37.369552, 55.790407 ], [ 37.369483, 55.790053 ] ] ] } },
{ "type": "Feature", "properties": { "ID": null, "CENTER_LON": "37.38899675615165", "CENTER_LAT": "55.788687006179565", "AA_METERS": 1000, "AA_MODE": "foot-walking", "TOTAL_POP": "45662" }, "geometry": { "type": "Polygon", "coordinates": [ [ [ 37.374981, 55.7903 ], [ 37.376883, 55.78595 ], [ 37.379507, 55.785435 ], [ 37.380864, 55.785383 ], [ 37.384942, 55.784961 ], [ 37.387059, 55.784064 ], [ 37.389968, 55.782817 ], [ 37.392332, 55.785819 ], [ 37.3963, 55.784212 ], [ 37.397156, 55.784038 ], [ 37.401421, 55.786146 ], [ 37.40478, 55.787943 ], [ 37.404904, 55.788139 ], [ 37.405025, 55.788685 ], [ 37.402232, 55.792007 ], [ 37.398176, 55.794713 ], [ 37.397031, 55.795426 ], [ 37.392732, 55.797358 ], [ 37.38924, 55.797853 ], [ 37.388443, 55.797666 ], [ 37.387468, 55.797226 ], [ 37.382181, 55.794731 ], [ 37.380307, 55.792243 ], [ 37.376064, 55.792505 ], [ 37.375994, 55.792467 ], [ 37.375039, 55.790657 ], [ 37.374981, 55.7903 ] ] ] } }
]
}
