{
"type": "FeatureCollection",
"name": "изохнроны2",
"crs": { "type": "name", "properties": { "name": "urn:ogc:def:crs:OGC:1.3:CRS84" } },
"features": [
{ "type": "Feature", "properties": { "ID": null, "CENTER_LON": "37.53020491149506", "CENTER_LAT": "55.85284601449527", "AA_METERS": 2500, "AA_MODE": "foot-walking", "TOTAL_POP": "169014" }, "geometry": { "type": "Polygon", "coordinates": [ [ [ 37.49279, 55.851341 ], [ 37.492908, 55.851001 ], [ 37.49322, 55.850934 ], [ 37.494161, 55.850831 ], [ 37.494461, 55.850775 ], [ 37.495006, 55.850861 ], [ 37.498199, 55.845975 ], [ 37.496968, 55.844485 ], [ 37.496472, 55.843438 ], [ 37.496321, 55.84321 ], [ 37.496251, 55.843099 ], [ 37.496221, 55.843022 ], [ 37.496193, 55.842867 ], [ 37.496586, 55.842128 ], [ 37.496602, 55.842107 ], [ 37.49675, 55.842036 ], [ 37.496856, 55.841998 ], [ 37.497264, 55.842101 ], [ 37.497673, 55.842205 ], [ 37.503246, 55.840074 ], [ 37.503481, 55.839899 ], [ 37.503856, 55.83962 ], [ 37.508624, 55.837388 ], [ 37.509792, 55.837275 ], [ 37.510153, 55.8373 ], [ 37.510513, 55.837324 ], [ 37.516228, 55.836108 ], [ 37.520243, 55.834416 ], [ 37.520409, 55.834337 ], [ 37.520837, 55.834149 ], [ 37.521008, 55.834126 ], [ 37.521115, 55.834153 ], [ 37.521863, 55.834369 ], [ 37.525478, 55.835265 ], [ 37.526872, 55.835613 ], [ 37.529027, 55.83615 ], [ 37.529809, 55.8363 ], [ 37.530617, 55.836501 ], [ 37.531485, 55.836856 ], [ 37.534561, 55.837433 ], [ 37.537713, 55.835512 ], [ 37.543384, 55.834955 ], [ 37.549325, 55.834287 ], [ 37.549411, 55.834269 ], [ 37.552751, 55.836145 ], [ 37.553029, 55.836374 ], [ 37.554409, 55.842159 ], [ 37.55589, 55.842837 ], [ 37.556459, 55.842993 ], [ 37.560492, 55.842423 ], [ 37.562595, 55.842759 ], [ 37.562787, 55.843063 ], [ 37.563162, 55.845298 ], [ 37.563107, 55.845654 ], [ 37.562987, 55.845728 ], [ 37.562555, 55.845858 ], [ 37.561465, 55.846305 ], [ 37.557518, 55.850307 ], [ 37.557233, 55.850433 ], [ 37.557179, 55.85043 ], [ 37.55356, 55.850641 ], [ 37.551076, 55.853714 ], [ 37.548991, 55.854268 ], [ 37.547778, 55.854598 ], [ 37.547489, 55.854627 ], [ 37.547142, 55.854659 ], [ 37.546886, 55.854629 ], [ 37.546686, 55.854599 ], [ 37.544406, 55.854496 ], [ 37.543405, 55.854376 ], [ 37.539897, 55.8587 ], [ 37.539653, 55.861351 ], [ 37.538738, 55.864377 ], [ 37.538574, 55.865336 ], [ 37.537945, 55.866596 ], [ 37.536206, 55.869375 ], [ 37.535612, 55.869935 ], [ 37.534884, 55.870542 ], [ 37.534883, 55.870543 ], [ 37.533881, 55.870897 ], [ 37.529085, 55.870825 ], [ 37.527125, 55.86999 ], [ 37.522618, 55.869249 ], [ 37.519929, 55.868283 ], [ 37.514901, 55.865907 ], [ 37.514005, 55.86619 ], [ 37.513615, 55.866303 ], [ 37.513407, 55.866353 ], [ 37.511306, 55.867313 ], [ 37.510422, 55.86746 ], [ 37.505683, 55.865097 ], [ 37.503228, 55.865135 ], [ 37.500942, 55.864686 ], [ 37.500823, 55.864609 ], [ 37.499516, 55.862273 ], [ 37.498962, 55.860922 ], [ 37.495575, 55.857126 ], [ 37.495339, 55.856854 ], [ 37.495128, 55.856565 ], [ 37.493296, 55.853778 ], [ 37.49279, 55.851341 ] ] ] } },
{ "type": "Feature", "properties": { "ID": null, "CENTER_LON": "37.53020491149506", "CENTER_LAT": "55.85284601449527", "AA_METERS": 2000, "AA_MODE": "foot-walking", "TOTAL_POP": "101969" }, "geometry": { "type": "Polygon", "coordinates": [ [ [ 37.49986, 55.853408 ], [ 37.501582, 55.849704 ], [ 37.5036, 55.844337 ], [ 37.504064, 55.843849 ], [ 37.505177, 55.843676 ], [ 37.510783, 55.841992 ], [ 37.512737, 55.840209 ], [ 37.516285, 55.839222 ], [ 37.516381, 55.839203 ], [ 37.52171, 55.838794 ], [ 37.522393, 55.838402 ], [ 37.522401, 55.838402 ], [ 37.523134, 55.838413 ], [ 37.526656, 55.839454 ], [ 37.526668, 55.839471 ], [ 37.532354, 55.841381 ], [ 37.534969, 55.84047 ], [ 37.540409, 55.839301 ], [ 37.541204, 55.839157 ], [ 37.543395, 55.838752 ], [ 37.546473, 55.838143 ], [ 37.549377, 55.840226 ], [ 37.549659, 55.84045 ], [ 37.549962, 55.840738 ], [ 37.552208, 55.842873 ], [ 37.552421, 55.843163 ], [ 37.557361, 55.846006 ], [ 37.557562, 55.846305 ], [ 37.557619, 55.846445 ], [ 37.556779, 55.847014 ], [ 37.555938, 55.847584 ], [ 37.555459, 55.847856 ], [ 37.554993, 55.84812 ], [ 37.554696, 55.848269 ], [ 37.552487, 55.850095 ], [ 37.551076, 55.853714 ], [ 37.548991, 55.854268 ], [ 37.547778, 55.854598 ], [ 37.547489, 55.854627 ], [ 37.547142, 55.854659 ], [ 37.546886, 55.854629 ], [ 37.546686, 55.854599 ], [ 37.544406, 55.854496 ], [ 37.541378, 55.854781 ], [ 37.540926, 55.854875 ], [ 37.540516, 55.854955 ], [ 37.540232, 55.854951 ], [ 37.536122, 55.855443 ], [ 37.535216, 55.860683 ], [ 37.535371, 55.861008 ], [ 37.533445, 55.865202 ], [ 37.531772, 55.866564 ], [ 37.531657, 55.866651 ], [ 37.530923, 55.86687 ], [ 37.530848, 55.866891 ], [ 37.529016, 55.86661 ], [ 37.528732, 55.866565 ], [ 37.525713, 55.866081 ], [ 37.521607, 55.863574 ], [ 37.519438, 55.863876 ], [ 37.518655, 55.864209 ], [ 37.518201, 55.864402 ], [ 37.517482, 55.864662 ], [ 37.516516, 55.865039 ], [ 37.515077, 55.865832 ], [ 37.514901, 55.865907 ], [ 37.514663, 55.865648 ], [ 37.512191, 55.862116 ], [ 37.509049, 55.861659 ], [ 37.507987, 55.861656 ], [ 37.506928, 55.861724 ], [ 37.506436, 55.861626 ], [ 37.506271, 55.861548 ], [ 37.506055, 55.86126 ], [ 37.504979, 55.858854 ], [ 37.504555, 55.858061 ], [ 37.500603, 55.853942 ], [ 37.500011, 55.853735 ], [ 37.499868, 55.853681 ], [ 37.49986, 55.853408 ] ] ] } },
{ "type": "Feature", "properties": { "ID": null, "CENTER_LON": "37.53020491149506", "CENTER_LAT": "55.85284601449527", "AA_METERS": 1500, "AA_MODE": "foot-walking", "TOTAL_POP": "49669" }, "geometry": { "type": "Polygon", "coordinates": [ [ [ 37.5077, 55.852803 ], [ 37.507889, 55.850549 ], [ 37.510418, 55.846254 ], [ 37.51064, 55.846078 ], [ 37.511, 55.845818 ], [ 37.515929, 55.844685 ], [ 37.518752, 55.843454 ], [ 37.519497, 55.843116 ], [ 37.520851, 55.842491 ], [ 37.522128, 55.842196 ], [ 37.52248, 55.842272 ], [ 37.523232, 55.842719 ], [ 37.526889, 55.844962 ], [ 37.526882, 55.845322 ], [ 37.526909, 55.850829 ], [ 37.531622, 55.85 ], [ 37.533396, 55.845474 ], [ 37.533419, 55.845114 ], [ 37.538161, 55.843611 ], [ 37.539396, 55.843264 ], [ 37.543289, 55.842502 ], [ 37.543425, 55.842469 ], [ 37.543558, 55.842463 ], [ 37.544323, 55.842962 ], [ 37.546069, 55.844335 ], [ 37.546509, 55.844979 ], [ 37.547014, 55.845784 ], [ 37.550278, 55.849669 ], [ 37.552155, 55.849373 ], [ 37.55235, 55.849676 ], [ 37.549484, 55.853673 ], [ 37.549143, 55.854103 ], [ 37.548991, 55.854268 ], [ 37.547778, 55.854598 ], [ 37.547489, 55.854627 ], [ 37.547142, 55.854659 ], [ 37.546886, 55.854629 ], [ 37.544406, 55.854496 ], [ 37.540926, 55.854875 ], [ 37.540516, 55.854955 ], [ 37.540232, 55.854951 ], [ 37.534717, 55.856672 ], [ 37.531669, 55.85996 ], [ 37.527416, 55.863279 ], [ 37.522051, 55.863563 ], [ 37.52123, 55.863224 ], [ 37.521088, 55.862894 ], [ 37.520981, 55.861604 ], [ 37.516298, 55.858299 ], [ 37.516134, 55.858296 ], [ 37.514795, 55.858248 ], [ 37.513992, 55.858288 ], [ 37.513116, 55.858369 ], [ 37.511381, 55.85815 ], [ 37.51132, 55.858125 ], [ 37.51038, 55.857382 ], [ 37.507743, 55.853161 ], [ 37.5077, 55.852803 ] ] ] } },
{ "type": "Feature", "properties": { "ID": null, "CENTER_LON": "37.53020491149506", "CENTER_LAT": "55.85284601449527", "AA_METERS": 1000, "AA_MODE": "foot-walking", "TOTAL_POP": "26843" }, "geometry": { "type": "Polygon", "coordinates": [ [ [ 37.514423, 55.853185 ], [ 37.516106, 55.847615 ], [ 37.517874, 55.846442 ], [ 37.521073, 55.845219 ], [ 37.521726, 55.845005 ], [ 37.521855, 55.845015 ], [ 37.52337, 55.847043 ], [ 37.525661, 55.850256 ], [ 37.526003, 55.85048 ], [ 37.526695, 55.850934 ], [ 37.532226, 55.85004 ], [ 37.53248, 55.850057 ], [ 37.536844, 55.848933 ], [ 37.539191, 55.845074 ], [ 37.539385, 55.844937 ], [ 37.53977, 55.844971 ], [ 37.541816, 55.847932 ], [ 37.544779, 55.849595 ], [ 37.545298, 55.849776 ], [ 37.545877, 55.850208 ], [ 37.546355, 55.851146 ], [ 37.546897, 55.853076 ], [ 37.546796, 55.853264 ], [ 37.545836, 55.854244 ], [ 37.545819, 55.854254 ], [ 37.544406, 55.854496 ], [ 37.540287, 55.854386 ], [ 37.536122, 55.855443 ], [ 37.534717, 55.856672 ], [ 37.531669, 55.85996 ], [ 37.527987, 55.861504 ], [ 37.527515, 55.861611 ], [ 37.527087, 55.861658 ], [ 37.526865, 55.8616 ], [ 37.524731, 55.860458 ], [ 37.524624, 55.860145 ], [ 37.521593, 55.855325 ], [ 37.520806, 55.855276 ], [ 37.517431, 55.856037 ], [ 37.514979, 55.854744 ], [ 37.514542, 55.854125 ], [ 37.514423, 55.853185 ] ] ] } }
]
}
